STARLINK-31358          
1 58977U 24031N   26068.86202153  .00007251  00000+0  25657-3 0  9997
2 58977  53.1603 295.5891 0001137 106.8746 253.2379 15.30215488116544
COSMOS 2588             
1 64095U 25109A   26068.81179522  .00009169  00000+0  32611-3 0  9998
2 64095  72.9704  73.5401 0005019 308.6780  51.3966 15.29122656 44425
